NORAD_CAT_ID,OBJECT_NAME,OBJECT_TYPE,EPOCH,MEAN_MOTION,ECCENTRICITY,INCLINATION,RA_OF_ASC_NODE,ARG_OF_PERICENTER,MEAN_ANOMALY,BSTAR,MEAN_MOTION_DOT,MEAN_MOTION_DDOT,TLE_LINE0,TLE_LINE1,TLE_LINE2,SEMIMAJOR_AXIS,PERIOD,APOGEE,PERIGEE,DECAYED
49165.0,STARLINK-3052,PAYLOAD,2022-07-19 06:40:15,14.98334366,0.000318,70.0003,46.3639,260.1329,99.9471,-5.4682e-05,-7.45e-06,0.0,0 STARLINK-3052,1 49165U 21082AM  22200.27795914 -.00000745  00000-0 -54682-4 0  9995,2 49165  70.0003  46.3639 0003180 260.1329  99.9471 14.98334366 48056,6950.179,96.107,574.255,569.8340000000002,0.0
49165.0,STARLINK-3052,PAYLOAD,2022-07-19 21:05:28,14.9833543,0.000321,70.0003,44.8489,259.6703,100.4094,0.00015263,1.729e-05,0.0,0 STARLINK-3052,1 49165U 21082AM  22200.87879706  .00001729  00000-0  15263-3 0  9995,2 49165  70.0003  44.8489 0003210 259.6703 100.4094 14.98335430 48136,6950.176,96.107,574.2719999999998,569.81,0.0
49165.0,STARLINK-3052,PAYLOAD,2022-07-20 06:42:16,14.98338771,0.0003206,70.0017,43.8384,259.713,100.3668,0.00036636,4.282e-05,0.0,0 STARLINK-3052,1 49165U 21082AM  22201.27935740  .00004282  00000-0  36636-3 0  9995,2 49165  70.0017  43.8384 0003206 259.7130 100.3668 14.98338771 48209,6950.166,96.106,574.259,569.803,0.0
49165.0,STARLINK-3052,PAYLOAD,2022-07-20 19:31:20,14.98347417,0.0003158,70.0022,42.4919,259.3671,100.7132,0.00050352,5.923e-05,0.0,0 STARLINK-3052,1 49165U 21082AM  22201.81343298  .00005923  00000-0  50352-3 0  9990,2 49165  70.0022  42.4919 0003158 259.3671 100.7132 14.98347417 48270,6950.139,96.106,574.1990000000002,569.809,0.0
49165.0,STARLINK-3052,PAYLOAD,2022-07-21 06:44:17,14.98335456,0.000319,70.0022,41.3137,258.5978,101.4823,3.6768e-06,-4.9e-07,0.0,0 STARLINK-3052,1 49165U 21082AM  22202.28075433 -.00000049  00000-0  36768-5 0  9997,2 49165  70.0022  41.3137 0003190 258.5978 101.4823 14.98335456 48351,6950.176,96.107,574.258,569.8240000000002,0.0
49165.0,STARLINK-3052,PAYLOAD,2022-07-21 13:08:49,14.98335404,0.0003137,70.0022,40.6403,258.6646,101.416,4.9876e-05,5.02e-06,0.0,0 STARLINK-3052,1 49165U 21082AM  22202.54779449  .00000502  00000-0  49876-4 0  9990,2 49165  70.0022  40.6403 0003137 258.6646 101.4160 14.98335404 48383,6950.176,96.107,574.221,569.861,0.0
49165.0,STARLINK-3052,PAYLOAD,2022-07-21 17:57:13,14.98336801,0.0003113,70.0024,40.1354,258.3611,101.7199,6.9192e-05,7.33e-06,0.0,0 STARLINK-3052,1 49165U 21082AM  22202.74807316  .00000733  00000-0  69192-4 0  9996,2 49165  70.0024  40.1354 0003113 258.3611 101.7199 14.98336801 48419,6950.172,96.107,574.2,569.873,0.0
49165.0,STARLINK-3052,PAYLOAD,2022-07-22 01:57:54,14.98326288,0.0003205,70.0018,39.2938,258.728,101.3519,-0.0001118,-1.427e-05,0.0,0 STARLINK-3052,1 49165U 21082AM  22203.08187964 -.00001427  00000-0 -11180-3 0  9990,2 49165  70.0018  39.2938 0003205 258.7280 101.3519 14.98326288 48473,6950.204000000002,96.107,574.297,569.842,0.0
49165.0,STARLINK-3052,PAYLOAD,2022-07-22 19:35:23,14.98326646,0.0003193,70.0018,37.4427,258.7937,101.2863,-7.744699999999999e-05,-1.017e-05,0.0,0 STARLINK-3052,1 49165U 21082AM  22203.81624208 -.00001017  00000-0 -77447-4 0  9992,2 49165  70.0018  37.4427 0003193 258.7937 101.2863 14.98326646 48571,6950.203,96.107,574.2869999999998,569.849,0.0
49165.0,STARLINK-3052,PAYLOAD,2022-07-23 06:48:19,14.98326696,0.0003088,70.0019,36.2643,258.8642,101.217,0.00013294,1.493e-05,0.0,0 STARLINK-3052,1 49165U 21082AM  22204.28356443  .00001493  00000-0  13294-3 0  9992,2 49165  70.0019  36.2643 0003088 258.8642 101.2170 14.98326696 48651,6950.203,96.107,574.214,569.922,0.0
49165.0,STARLINK-3052,PAYLOAD,2022-07-23 13:12:52,14.98327959,0.0003085,70.0018,35.591,258.6888,101.3924,0.00014518,1.64e-05,0.0,0 STARLINK-3052,1 49165U 21082AM  22204.55060497  .00001640  00000-0  14518-3 0  9997,2 49165  70.0018  35.5910 0003085 258.6888 101.3924 14.98327959 48680,6950.199000000001,96.107,574.2080000000002,569.92,0.0
49165.0,STARLINK-3052,PAYLOAD,2022-07-23 21:13:32,14.98328686,0.0002998,70.0023,34.7494,257.3148,102.7676,0.00034354,4.008e-05,0.0,0 STARLINK-3052,1 49165U 21082AM  22204.88440706  .00004008  00000-0  34354-3 0  9999,2 49165  70.0023  34.7494 0002998 257.3148 102.7676 14.98328686 48734,6950.196999999999,96.107,574.146,569.9780000000002,0.0
49165.0,STARLINK-3052,PAYLOAD,2022-07-24 13:14:53,14.98334768,0.0003091,70.0022,33.0661,258.5762,101.505,0.00031734,3.696e-05,0.0,0 STARLINK-3052,1 49165U 21082AM  22205.55200487  .00003696  00000-0  31734-3 0  9995,2 49165  70.0022  33.0661 0003091 258.5762 101.5050 14.98334768 48833,6950.178000000001,96.107,574.191,569.895,0.0
49165.0,STARLINK-3052,PAYLOAD,2022-07-24 18:03:17,14.98336556,0.0003086,70.0023,32.5612,258.6319,101.4493,0.00031125,3.623e-05,0.0,0 STARLINK-3052,1 49165U 21082AM  22205.75228364  .00003623  00000-0  31125-3 0  9995,2 49165  70.0023  32.5612 0003086 258.6319 101.4493 14.98336556 48878,6950.1730000000025,96.107,574.182,569.893,0.0
49165.0,STARLINK-3052,PAYLOAD,2022-07-24 19:39:25,14.98336585,0.0003083999999999,70.0023,32.3929,258.597,101.4842,0.00030319,3.527e-05,0.0,0 STARLINK-3052,1 49165U 21082AM  22205.81904355  .00003527  00000-0  30319-3 0  9990,2 49165  70.0023  32.3929 0003084 258.5970 101.4842 14.98336585 48877,6950.1730000000025,96.107,574.181,569.894,0.0
49165.0,STARLINK-3052,PAYLOAD,2022-07-25 05:16:13,14.98341399,0.0003089,70.0022,31.3828,258.693,101.3882,0.00033635,3.924e-05,0.0,0 STARLINK-3052,1 49165U 21082AM  22206.21960057  .00003924  00000-0  33635-3 0  9991,2 49165  70.0022  31.3828 0003089 258.6930 101.3882 14.98341399 48934,6950.158,96.106,574.17,569.876,0.0
49165.0,STARLINK-3052,PAYLOAD,2022-07-25 16:29:09,14.98343324,0.0003103999999999,70.0021,30.2045,258.3347,101.7464,0.00028454,3.305e-05,0.0,0 STARLINK-3052,1 49165U 21082AM  22206.68691679  .00003305  00000-0  28454-3 0  9999,2 49165  70.0021  30.2045 0003104 258.3347 101.7464 14.98343324 49008,6950.151999999999,96.106,574.174,569.859,0.0
49165.0,STARLINK-3052,PAYLOAD,2022-07-26 00:29:49,14.98344184,0.0003161,70.0021,29.3628,260.5909,99.4893,0.00014035,1.583e-05,0.0,0 STARLINK-3052,1 49165U 21082AM  22207.02071324  .00001583  00000-0  14035-3 0  9993,2 49165  70.0021  29.3628 0003161 260.5909  99.4893 14.98344184 49066,6950.149,96.106,574.211,569.817,0.0
49165.0,STARLINK-3052,PAYLOAD,2022-07-26 05:18:14,14.98333058,0.0003177,70.0018,28.8577,256.4761,103.6044,1.9887e-05,1.44e-06,0.0,0 STARLINK-3052,1 49165U 21082AM  22207.22099843  .00000144  00000-0  19887-4 0  9994,2 49165  70.0018  28.8577 0003177 256.4761 103.6044 14.98333058 49093,6950.183000000001,96.107,574.257,569.84,0.0
49165.0,STARLINK-3052,PAYLOAD,2022-07-26 13:18:54,14.98331407,0.0003161,70.0018,28.0161,257.5203,102.5603,-2.5446e-05,-3.97e-06,0.0,0 STARLINK-3052,1 49165U 21082AM  22207.55479895 -.00000397  00000-0 -25446-4 0  9999,2 49165  70.0018  28.0161 0003161 257.5203 102.5603 14.98331407 49130,6950.189,96.107,574.25,569.857,0.0
49165.0,STARLINK-3052,PAYLOAD,2022-07-26 19:43:26,14.98331512,0.0003168,70.0018,27.3426,256.9284,103.1521,-2.5793e-05,-4.01e-06,0.0,0 STARLINK-3052,1 49165U 21082AM  22207.82183836 -.00000401  00000-0 -25793-4 0  9997,2 49165  70.0018  27.3426 0003168 256.9284 103.1521 14.98331512 49172,6950.188,96.107,574.255,569.851,0.0
49165.0,STARLINK-3052,PAYLOAD,2022-07-27 11:44:47,14.98333387,0.000317,70.0017,25.6593,256.5404,103.5401,1.9308e-05,1.37e-06,0.0,0 STARLINK-3052,1 49165U 21082AM  22208.48943707  .00000137  00000-0  19308-4 0  9990,2 49165  70.0017  25.6593 0003170 256.5404 103.5401 14.98333387 49285,6950.182,96.107,574.251,569.844,0.0
49165.0,STARLINK-3052,PAYLOAD,2022-07-27 13:20:55,14.98332036,0.0003174,70.0017,25.4912,257.4519,102.6285,7.7224e-06,-1e-08,0.0,0 STARLINK-3052,1 49165U 21082AM  22208.55619793 -.00000001  00000-0  77224-5 0  9996,2 49165  70.0017  25.4912 0003174 257.4519 102.6285 14.98332036 49289,6950.187,96.107,574.258,569.846,0.0
49165.0,STARLINK-3052,PAYLOAD,2022-07-27 18:09:19,14.983326000000002,0.0003177,70.0018,24.9861,256.574,103.5065,3.1502e-05,2.83e-06,0.0,0 STARLINK-3052,1 49165U 21082AM  22208.75647755  .00000283  00000-0  31502-4 0  9996,2 49165  70.0018  24.9861 0003177 256.5740 103.5065 14.98332600 49313,6950.185,96.107,574.258,569.842,0.0
49165.0,STARLINK-3052,PAYLOAD,2022-07-28 11:46:48,14.98331686,0.0003174,70.0018,23.1347,257.1473,102.9332,0.00020217,2.32e-05,0.0,0 STARLINK-3052,1 49165U 21082AM  22209.49083880  .00002320  00000-0  20217-3 0  9995,2 49165  70.0018  23.1347 0003174 257.1473 102.9332 14.98331686 49425,6950.188,96.107,574.259,569.847,0.0
49165.0,STARLINK-3052,PAYLOAD,2022-07-28 18:11:20,14.98333237,0.0003177999999999,70.0019,22.4614,257.1515,102.9289,0.00019763,2.266e-05,0.0,0 STARLINK-3052,1 49165U 21082AM  22209.75787790  .00002266  00000-0  19763-3 0  9998,2 49165  70.0019  22.4614 0003178 257.1515 102.9289 14.98333237 49465,6950.183000000001,96.107,574.257,569.839,0.0
49165.0,STARLINK-3052,PAYLOAD,2022-07-29 11:48:49,14.98336954,0.0003174,70.002,20.6098,256.9993,103.0812,0.00018025,2.059e-05,0.0,0 STARLINK-3052,1 49165U 21082AM  22210.49223439  .00002059  00000-0  18025-3 0  9996,2 49165  70.0020  20.6098 0003174 256.9993 103.0812 14.98336954 49571,6950.170999999999,96.107,574.242,569.83,0.0
49165.0,STARLINK-3052,PAYLOAD,2022-07-29 18:13:21,14.98338665,0.0003168999999999,70.0021,19.9365,256.7933,103.2872,0.00020366,2.338e-05,0.0,0 STARLINK-3052,1 49165U 21082AM  22210.75927257  .00002338  00000-0  20366-3 0  9995,2 49165  70.0021  19.9365 0003169 256.7933 103.2872 14.98338665 49610,6950.166,96.106,574.234,569.8290000000002,0.0
49165.0,STARLINK-3052,PAYLOAD,2022-07-30 10:14:41,14.98337513,0.0003153,70.0023,18.2531,256.4113,103.6694,0.00010396,1.148e-05,0.0,0 STARLINK-3052,1 49165U 21082AM  22211.42687015  .00001148  00000-0  10396-3 0  9995,2 49165  70.0023  18.2531 0003153 256.4113 103.6694 14.98337513 49717,6950.17,96.107,574.226,569.8430000000002,0.0
